{
  "norad_id": 50470,
  "name": "ONEWEB-0390",
  "history": [
    {
      "epoch": "2026-03-28T20:38:18.974112Z",
      "apogee_km": 1195.1901186029882,
      "perigee_km": 1192.2363398285706,
      "latitude_deg": -1.382129783259637e-05,
      "longitude_deg": -114.0327925555639,
      "height_km": 1196.156155423929,
      "semi_major_axis_km": 7571.850229215779,
      "eccentricity": 0.00019505,
      "inclination_deg": 87.9175,
      "raan_deg": 21.8206,
      "arg_perigee_deg": 72.1604,
      "mean_anomaly_deg": 287.974,
      "mean_motion_rev_day": 13.17649008
    },
    {
      "epoch": "2026-03-29T02:06:21.600000Z",
      "apogee_km": 1195.1874654581234,
      "perigee_km": 1192.2359588301288,
      "latitude_deg": -9.108579745424071e-06,
      "longitude_deg": 163.6865284265508,
      "height_km": 1196.1573720757872,
      "semi_major_axis_km": 7571.848712144126,
      "eccentricity": 0.0001949,
      "inclination_deg": 87.9176,
      "raan_deg": 21.7754,
      "arg_perigee_deg": 72.2576,
      "mean_anomaly_deg": 287.8768,
      "mean_motion_rev_day": 13.17649404
    },
    {
      "epoch": "2026-03-30T01:47:53.091456Z",
      "apogee_km": 1195.1698088073626,
      "perigee_km": 1192.2531327764127,
      "latitude_deg": -1.887535604820269e-05,
      "longitude_deg": 167.13641503236124,
      "height_km": 1196.1544654310926,
      "semi_major_axis_km": 7571.848470791887,
      "eccentricity": 0.0001926,
      "inclination_deg": 87.9177,
      "raan_deg": 21.5795,
      "arg_perigee_deg": 71.9265,
      "mean_anomaly_deg": 288.2076,
      "mean_motion_rev_day": 13.17649467
    },
    {
      "epoch": "2026-03-30T05:26:34.863360Z",
      "apogee_km": 1195.165325173889,
      "perigee_km": 1192.257432522476,
      "latitude_deg": -4.962860927349459e-05,
      "longitude_deg": 112.2824722667501,
      "height_km": 1196.154490698891,
      "semi_major_axis_km": 7571.848378848182,
      "eccentricity": 0.00019202,
      "inclination_deg": 87.9178,
      "raan_deg": 21.5493,
      "arg_perigee_deg": 71.8742,
      "mean_anomaly_deg": 288.2598,
      "mean_motion_rev_day": 13.17649491
    },
    {
      "epoch": "2026-03-30T12:43:58.414944Z",
      "apogee_km": 1195.1605824794087,
      "perigee_km": 1192.2629873863907,
      "latitude_deg": 2.9749375644263846e-05,
      "longitude_deg": 2.5747593429413813,
      "height_km": 1196.1555068972566,
      "semi_major_axis_km": 7571.848784932899,
      "eccentricity": 0.00019134,
      "inclination_deg": 87.9179,
      "raan_deg": 21.4891,
      "arg_perigee_deg": 71.8329,
      "mean_anomaly_deg": 288.3011,
      "mean_motion_rev_day": 13.17649385
    },
    {
      "epoch": "2026-03-30T20:01:21.963936Z",
      "apogee_km": 1195.153990055138,
      "perigee_km": 1192.2700242053024,
      "latitude_deg": 5.042119155035444e-05,
      "longitude_deg": -107.13304487495962,
      "height_km": 1196.1533595495919,
      "semi_major_axis_km": 7571.84900713022,
      "eccentricity": 0.00019044,
      "inclination_deg": 87.918,
      "raan_deg": 21.4288,
      "arg_perigee_deg": 71.6442,
      "mean_anomaly_deg": 288.4897,
      "mean_motion_rev_day": 13.17649327
    },
    {
      "epoch": "2026-03-31T19:42:53.515008Z",
      "apogee_km": 1195.1486197793492,
      "perigee_km": 1192.2788883435596,
      "latitude_deg": -1.891495043700092e-05,
      "longitude_deg": -103.68320870910779,
      "height_km": 1196.1517019728974,
      "semi_major_axis_km": 7571.850754061454,
      "eccentricity": 0.0001895,
      "inclination_deg": 87.9182,
      "raan_deg": 21.2331,
      "arg_perigee_deg": 71.4052,
      "mean_anomaly_deg": 288.7285,
      "mean_motion_rev_day": 13.17648871
    },
    {
      "epoch": "2026-04-01T12:07:01.339968Z",
      "apogee_km": 1195.150671620725,
      "perigee_km": 1192.267312666917,
      "latitude_deg": 1.750080100931809e-05,
      "longitude_deg": 9.47517614717633,
      "height_km": 1196.1578510579898,
      "semi_major_axis_km": 7571.845992143821,
      "eccentricity": 0.0001904,
      "inclination_deg": 87.9181,
      "raan_deg": 21.0977,
      "arg_perigee_deg": 71.9541,
      "mean_anomaly_deg": 288.1798,
      "mean_motion_rev_day": 13.17650114
    }
  ]
}